{"fetched_at":"2026-03-30T06:02:59Z","count":15439,"tles":[{"name":"ONEWEB-0434","line1":"1 51631U 22012K   26087.93569133 -.00000402  00000+0 -11869-2 0  9999","line2":"2 51631  87.8810  52.2606 0001253  87.4577 272.6694 13.10376185198818","category":"Other"}]}